1 15106U 00000A   26061.52914633  .00000000  00000-0 0.0000000 0  9990
2 15106  43.0000 180.0000 0001000   0.0000 198.0000 15.12033277    12
1 15107U 00000A   26061.52914633  .00000000  00000-0 0.0000000 0  9991
2 15107  43.0000 180.0000 0001000   0.0000 201.0000 15.12033277    18
1 15108U 00000A   26061.52914633  .00000000  00000-0 0.0000000 0  9992
2 15108  43.0000 180.0000 0001000   0.0000 204.0000 15.12033277    12
1 15109U 00000A   26061.52914633  .00000000  00000-0 0.0000000 0  9993
2 15109  43.0000 180.0000 0001000   0.0000 207.0000 15.12033277    16
1 15110U 00000A   26061.52914633  .00000000  00000-0 0.0000000 0  9995
2 15110  43.0000 180.0000 0001000   0.0000 210.0000 15.12033277    12
1 15111U 00000A   26061.52914633  .00000000  00000-0 0.0000000 0  9996
2 15111  43.0000 180.0000 0001000   0.0000 213.0000 15.12033277    16
1 15112U 00000A   26061.52914633  .00000000  00000-0 0.0000000 0  9997
2 15112  43.0000 180.0000 0001000   0.0000 216.0000 15.12033277    10
1 15113U 00000A   26061.52914633  .00000000  00000-0 0.0000000 0  9998
2 15113  43.0000 180.0000 0001000   0.0000 219.0000 15.12033277    14
1 15114U 00000A   26061.52914633  .00000000  00000-0 0.0000000 0  9999
2 15114  43.0000 180.0000 0001000   0.0000 222.0000 15.12033277    19
1 15115U 00000A   26061.52914633  .00000000  00000-0 0.0000000 0  9990
2 15115  43.0000 180.0000 0001000   0.0000 225.0000 15.12033277    13
1 15116U 00000A   26061.52914633  .00000000  00000-0 0.0000000 0  9991
2 15116  43.0000 180.0000 0001000   0.0000 228.0000 15.12033277    17
1 15117U 00000A   26061.52914633  .00000000  00000-0 0.0000000 0  9992
2 15117  43.0000 180.0000 0001000   0.0000 231.0000 15.12033277    12
1 15118U 00000A   26061.52914633  .00000000  00000-0 0.0000000 0  9993
2 15118  43.0000 180.0000 0001000   0.0000 234.0000 15.12033277    16
1 15119U 00000A   26061.52914633  .00000000  00000-0 0.0000000 0  9994
2 15119  43.0000 180.0000 0001000   0.0000 237.0000 15.12033277    10
1 15120U 00000A   26061.52914633  .00000000  00000-0 0.0000000 0  9996
2 15120  43.0000 180.0000 0001000   0.0000 240.0000 15.12033277    16
1 15121U 00000A   26061.52914633  .00000000  00000-0 0.0000000 0  9997
2 15121  43.0000 180.0000 0001000   0.0000 243.0000 15.12033277    10
1 15122U 00000A   26061.52914633  .00000000  00000-0 0.0000000 0  9998
2 15122  43.0000 180.0000 0001000   0.0000 246.0000 15.12033277    14
1 15123U 00000A   26061.52914633  .00000000  00000-0 0.0000000 0  9999
2 15123  43.0000 180.0000 0001000   0.0000 249.0000 15.12033277    18
1 15124U 00000A   26061.52914633  .00000000  00000-0 0.0000000 0  9990
2 15124  43.0000 180.0000 0001000   0.0000 252.0000 15.12033277    13
1 15125U 00000A   26061.52914633  .00000000  00000-0 0.0000000 0  9991
2 15125  43.0000 180.0000 0001000   0.0000 255.0000 15.12033277    17
1 15126U 00000A   26061.52914633  .00000000  00000-0 0.0000000 0  9992
2 15126  43.0000 180.0000 0001000   0.0000 258.0000 15.12033277    11
1 15127U 00000A   26061.52914633  .00000000  00000-0 0.0000000 0  9993
2 15127  43.0000 180.0000 0001000   0.0000 261.0000 15.12033277    16
1 15128U 00000A   26061.52914633  .00000000  00000-0 0.0000000 0  9994
2 15128  43.0000 180.0000 0001000   0.0000 264.0000 15.12033277    10
1 15129U 00000A   26061.52914633  .00000000  00000-0 0.0000000 0  9995
2 15129  43.0000 180.0000 0001000   0.0000 267.0000 15.12033277    14
1 15130U 00000A   26061.52914633  .00000000  00000-0 0.0000000 0  9997
2 15130  43.0000 180.0000 0001000   0.0000 270.0000 15.12033277    10
1 15131U 00000A   26061.52914633  .00000000  00000-0 0.0000000 0  9998
2 15131  43.0000 180.0000 0001000   0.0000 273.0000 15.12033277    14
1 15132U 00000A   26061.52914633  .00000000  00000-0 0.0000000 0  9999
2 15132  43.0000 180.0000 0001000   0.0000 276.0000 15.12033277    18
1 15133U 00000A   26061.52914633  .00000000  00000-0 0.0000000 0  9990
2 15133  43.0000 180.0000 0001000   0.0000 279.0000 15.12033277    12
1 15134U 00000A   26061.52914633  .00000000  00000-0 0.0000000 0  9991
2 15134  43.0000 180.0000 0001000   0.0000 282.0000 15.12033277    17
1 15135U 00000A   26061.52914633  .00000000  00000-0 0.0000000 0  9992
2 15135  43.0000 180.0000 0001000   0.0000 285.0000 15.12033277    11
1 15136U 00000A   26061.52914633  .00000000  00000-0 0.0000000 0  9993
2 15136  43.0000 180.0000 0001000   0.0000 288.0000 15.12033277    15
1 15137U 00000A   26061.52914633  .00000000  00000-0 0.0000000 0  9994
2 15137  43.0000 180.0000 0001000   0.0000 291.0000 15.12033277    10
1 15138U 00000A   26061.52914633  .00000000  00000-0 0.0000000 0  9995
2 15138  43.0000 180.0000 0001000   0.0000 294.0000 15.12033277    14
1 15139U 00000A   26061.52914633  .00000000  00000-0 0.0000000 0  9996
2 15139  43.0000 180.0000 0001000   0.0000 297.0000 15.12033277    18
1 15140U 00000A   26061.52914633  .00000000  00000-0 0.0000000 0  9998
2 15140  43.0000 180.0000 0001000   0.0000 300.0000 15.12033277    15
1 15141U 00000A   26061.52914633  .00000000  00000-0 0.0000000 0  9999
2 15141  43.0000 180.0000 0001000   0.0000 303.0000 15.12033277    19
1 15142U 00000A   26061.52914633  .00000000  00000-0 0.0000000 0  9990
2 15142  43.0000 180.0000 0001000   0.0000 306.0000 15.12033277    13
1 15143U 00000A   26061.52914633  .00000000  00000-0 0.0000000 0  9991
2 15143  43.0000 180.0000 0001000   0.0000 309.0000 15.12033277    17
1 15144U 00000A   26061.52914633  .00000000  00000-0 0.0000000 0  9992
2 15144  43.0000 180.0000 0001000   0.0000 312.0000 15.12033277    12
1 15145U 00000A   26061.52914633  .00000000  00000-0 0.0000000 0  9993
2 15145  43.0000 180.0000 0001000   0.0000 315.0000 15.12033277    16
1 15146U 00000A   26061.52914633  .00000000  00000-0 0.0000000 0  9994
2 15146  43.0000 180.0000 0001000   0.0000 318.0000 15.12033277    10
1 15147U 00000A   26061.52914633  .00000000  00000-0 0.0000000 0  9995
2 15147  43.0000 180.0000 0001000   0.0000 321.0000 15.12033277    15
1 15148U 00000A   26061.52914633  .00000000  00000-0 0.0000000 0  9996
2 15148  43.0000 180.0000 0001000   0.0000 324.0000 15.12033277    19
1 15149U 00000A   26061.52914633  .00000000  00000-0 0.0000000 0  9997
2 15149  43.0000 180.0000 0001000   0.0000 327.0000 15.12033277    13
1 15150U 00000A   26061.52914633  .00000000  00000-0 0.0000000 0  9999
2 15150  43.0000 180.0000 0001000   0.0000 330.0000 15.12033277    19
1 15151U 00000A   26061.52914633  .00000000  00000-0 0.0000000 0  9990
2 15151  43.0000 180.0000 0001000   0.0000 333.0000 15.12033277    13
1 15152U 00000A   26061.52914633  .00000000  00000-0 0.0000000 0  9991
2 15152  43.0000 180.0000 0001000   0.0000 336.0000 15.12033277    17
1 15153U 00000A   26061.52914633  .00000000  00000-0 0.0000000 0  9992
2 15153  43.0000 180.0000 0001000   0.0000 339.0000 15.12033277    11
1 15154U 00000A   26061.52914633  .00000000  00000-0 0.0000000 0  9993
2 15154  43.0000 180.0000 0001000   0.0000 342.0000 15.12033277    16
1 15155U 00000A   26061.52914633  .00000000  00000-0 0.0000000 0  9994
2 15155  43.0000 180.0000 0001000   0.0000 345.0000 15.12033277    10
1 15156U 00000A   26061.52914633  .00000000  00000-0 0.0000000 0  9995
2 15156  43.0000 180.0000 0001000   0.0000 348.0000 15.12033277    14
1 15157U 00000A   26061.52914633  .00000000  00000-0 0.0000000 0  9996
2 15157  43.0000 180.0000 0001000   0.0000 351.0000 15.12033277    19
1 15158U 00000A   26061.52914633  .00000000  00000-0 0.0000000 0  9997
2 15158  43.0000 180.0000 0001000   0.0000 354.0000 15.12033277    13
1 15159U 00000A   26061.52914633  .00000000  00000-0 0.0000000 0  9998
2 15159  43.0000 180.0000 0001000   0.0000 357.0000 15.12033277    17
1 15160U 00000A   26061.52914633  .00000000  00000-0 0.0000000 0  9990
2 15160  43.0000 192.8571 0001000   0.0000   0.0000 15.12033277    18
1 15161U 00000A   26061.52914633  .00000000  00000-0 0.0000000 0  9991
2 15161  43.0000 192.8571 0001000   0.0000   3.0000 15.12033277    12
1 15162U 00000A   26061.52914633  .00000000  00000-0 0.0000000 0  9992
2 15162  43.0000 192.8571 0001000   0.0000   6.0000 15.12033277    16
1 15163U 00000A   26061.52914633  .00000000  00000-0 0.0000000 0  9993
2 15163  43.0000 192.8571 0001000   0.0000   9.0000 15.12033277    10
1 15164U 00000A   26061.52914633  .00000000  00000-0 0.0000000 0  9994
2 15164  43.0000 192.8571 0001000   0.0000  12.0000 15.12033277    15
1 15165U 00000A   26061.52914633  .00000000  00000-0 0.0000000 0  9995
2 15165  43.0000 192.8571 0001000   0.0000  15.0000 15.12033277    19
1 15166U 00000A   26061.52914633  .00000000  00000-0 0.0000000 0  9996
2 15166  43.0000 192.8571 0001000   0.0000  18.0000 15.12033277    13
1 15167U 00000A   26061.52914633  .00000000  00000-0 0.0000000 0  9997
2 15167  43.0000 192.8571 0001000   0.0000  21.0000 15.12033277    18
1 15168U 00000A   26061.52914633  .00000000  00000-0 0.0000000 0  9998
2 15168  43.0000 192.8571 0001000   0.0000  24.0000 15.12033277    12
1 15169U 00000A   26061.52914633  .00000000  00000-0 0.0000000 0  9999
2 15169  43.0000 192.8571 0001000   0.0000  27.0000 15.12033277    16
1 15170U 00000A   26061.52914633  .00000000  00000-0 0.0000000 0  9991
2 15170  43.0000 192.8571 0001000   0.0000  30.0000 15.12033277    12
1 15171U 00000A   26061.52914633  .00000000  00000-0 0.0000000 0  9992
2 15171  43.0000 192.8571 0001000   0.0000  33.0000 15.12033277    16
1 15172U 00000A   26061.52914633  .00000000  00000-0 0.0000000 0  9993
2 15172  43.0000 192.8571 0001000   0.0000  36.0000 15.12033277    10
1 15173U 00000A   26061.52914633  .00000000  00000-0 0.0000000 0  9994
2 15173  43.0000 192.8571 0001000   0.0000  39.0000 15.12033277    14
1 15174U 00000A   26061.52914633  .00000000  00000-0 0.0000000 0  9995
2 15174  43.0000 192.8571 0001000   0.0000  42.0000 15.12033277    19
